[
    {
        "Altitude(m)": 624792.8031300476,
        "Argument of Periapsis(deg)": 0.0,
        "Eccentricity": 0.0,
        "Inclination(deg)": 60.0,
        "Latitude(deg)": -59.14718172915444,
        "Longitude(deg)": -110.97368285857287,
        "Mean Anomaly(deg)": 261.8182,
        "RAAN(deg)": 95.0,
        "Satellite Name": "Test1 434",
        "Satellite Number": 434,
        "Semi-Major Axis(m)": 6980739.136638005,
        "Time(s)": 0
    },
    {
        "Altitude(m)": 624842.1954076752,
        "Argument of Periapsis(deg)": 0.00010418945913296404,
        "Eccentricity": 0.0,
        "Inclination(deg)": 60.0,
        "Latitude(deg)": -59.28926630955053,
        "Longitude(deg)": -109.84417614436221,
        "Mean Anomaly(deg)": 262.4383061454618,
        "RAAN(deg)": 94.99957995086027,
        "Satellite Name": "Test1 434",
        "Satellite Number": 434,
        "Semi-Major Axis(m)": 6980739.136638005,
        "Time(s)": 10
    }
]